[{"OBJECT_NAME":"TK-2","OBJECT_ID":"2022-031A","EPOCH":"2026-03-09T22:51:17.143200","MEAN_MOTION":15.02943491,"ECCENTRICITY":0.00164117,"INCLINATION":97.8366,"RA_OF_ASC_NODE":263.9365,"ARG_OF_PERICENTER":100.3205,"MEAN_ANOMALY":259.9871,"EPHEMERIS_TYPE":0,"CLASSIFICATION_TYPE":"U","NORAD_CAT_ID":52150,"ELEMENT_SET_NO":999,"REV_AT_EPOCH":21555,"BSTAR":0.00040164474,"MEAN_MOTION_DOT":5.349e-5,"MEAN_MOTION_DDOT":0},{"OBJECT_NAME":"STARLINK-34632","OBJECT_ID":"2025-150C","EPOCH":"2026-03-09T14:41:27.561984","MEAN_MOTION":14.98333403,"ECCENTRICITY":0.0003624,"INCLINATION":70.0018,"RA_OF_ASC_NODE":134.5967,"ARG_OF_PERICENTER":272.7438,"MEAN_ANOMALY":87.3306,"EPHEMERIS_TYPE":0,"CLASSIFICATION_TYPE":"U","NORAD_CAT_ID":64792,"ELEMENT_SET_NO":999,"REV_AT_EPOCH":3650,"BSTAR":0.00028859,"MEAN_MOTION_DOT":3.352e-5,"MEAN_MOTION_DDOT":0}]
